{
  "type": "FeatureCollection",
  "features": [
    {
      "type": "Feature",
      "properties": {
        "norad_id": 33376,
        "name": "GALAXY 19 (G-19)",
        "group": "intelsat",
        "lat": 0.007620833475586654,
        "lon": -25.479266684145227,
        "alt_km": 35780.22798290088,
        "timestamp": "2025-12-08T23:34:03.637373+00:00",
        "meta_object_name": "GALAXY 19 (G-19)",
        "meta_object_id": "2008-045A",
        "meta_epoch": "2025-12-08T12:23:15.078336",
        "meta_mean_motion": 1.00269772,
        "meta_eccentricity": 0.00033922,
        "meta_inclination": 0.0166,
        "meta_ra_of_asc_node": 308.7127,
        "meta_arg_of_pericenter": 322.4993,
        "meta_mean_anomaly": 255.1198,
        "meta_ephemeris_type": 0,
        "meta_classification_type": "U",
        "meta_norad_cat_id": 33376,
        "meta_element_set_no": 999,
        "meta_rev_at_epoch": 6299,
        "meta_bstar": 0,
        "meta_mean_motion_dot": -1.37e-06,
        "meta_mean_motion_ddot": 0,
        "tle_line1": "1 33376U 08045A   25342.51614674 -.00000137  00000+0  00000+0 0  9999",
        "tle_line2": "2 33376   0.0166 308.7127 0003392 322.4993 255.1198  1.00269772 62995"
      },
      "geometry": {
        "type": "Point",
        "coordinates": [
          -25.479266684145227,
          0.007620833475586654
        ]
      }
    },
    {
      "type": "Feature",
      "properties": {
        "norad_id": 35493,
        "name": "FM-5",
        "group": "intelsat",
        "lat": 0.01997006907665534,
        "lon": -14.647084666775562,
        "alt_km": 35789.83464071637,
        "timestamp": "2025-12-08T23:34:03.637385+00:00",
        "meta_object_name": "FM-5",
        "meta_object_id": "2009-034A",
        "meta_epoch": "2025-12-08T13:11:39.599232",
        "meta_mean_motion": 1.00270908,
        "meta_eccentricity": 8.538e-05,
        "meta_inclination": 0.0216,
        "meta_ra_of_asc_node": 286.7694,
        "meta_arg_of_pericenter": 252.2013,
        "meta_mean_anomaly": 10.3592,
        "meta_ephemeris_type": 0,
        "meta_classification_type": "U",
        "meta_norad_cat_id": 35493,
        "meta_element_set_no": 999,
        "meta_rev_at_epoch": 4473,
        "meta_bstar": 0,
        "meta_mean_motion_dot": -1.98e-06,
        "meta_mean_motion_ddot": 0,
        "tle_line1": "1 35493U 09034A   25342.54976388 -.00000198  00000+0  00000+0 0  9993",
        "tle_line2": "2 35493   0.0216 286.7694 0000853 252.2013  10.3592  1.00270908 44733"
      },
      "geometry": {
        "type": "Point",
        "coordinates": [
          -14.647084666775562,
          0.01997006907665534
        ]
      }
    },
    {
      "type": "Feature",
      "properties": {
        "norad_id": 36097,
        "name": "INTELSAT 14 (IS-14)",
        "group": "intelsat",
        "lat": 0.02402246181634526,
        "lon": 26.525074653916832,
        "alt_km": 35792.645398952154,
        "timestamp": "2025-12-08T23:34:03.637397+00:00",
        "meta_object_name": "INTELSAT 14 (IS-14)",
        "meta_object_id": "2009-064A",
        "meta_epoch": "2025-12-08T09:57:58.147776",
        "meta_mean_motion": 1.00270625,
        "meta_eccentricity": 0.0002702,
        "meta_inclination": 0.0102,
        "meta_ra_of_asc_node": 331.4392,
        "meta_arg_of_pericenter": 292.4176,
        "meta_mean_anomaly": 278.0672,
        "meta_ephemeris_type": 0,
        "meta_classification_type": "U",
        "meta_norad_cat_id": 36097,
        "meta_element_set_no": 999,
        "meta_rev_at_epoch": 5869,
        "meta_bstar": 0,
        "meta_mean_motion_dot": -2.71e-06,
        "meta_mean_motion_ddot": 0,
        "tle_line1": "1 36097U 09064A   25342.41525634 -.00000271  00000+0  00000+0 0  9999",
        "tle_line2": "2 36097   0.0102 331.4392 0002702 292.4176 278.0672  1.00270625 58690"
      },
      "geometry": {
        "type": "Point",
        "coordinates": [
          26.525074653916832,
          0.02402246181634526
        ]
      }
    },
    {
      "type": "Feature",
      "properties": {
        "norad_id": 36106,
        "name": "INTELSAT 15 (IS-15)",
        "group": "intelsat",
        "lat": 0.012139641969287608,
        "lon": 156.61400636498334,
        "alt_km": 35789.51454072092,
        "timestamp": "2025-12-08T23:34:03.637410+00:00",
        "meta_object_name": "INTELSAT 15 (IS-15)",
        "meta_object_id": "2009-067A",
        "meta_epoch": "2025-12-08T14:00:34.913088",
        "meta_mean_motion": 1.00270213,
        "meta_eccentricity": 0.00024693,
        "meta_inclination": 0.0105,
        "meta_ra_of_asc_node": 16.3415,
        "meta_arg_of_pericenter": 246.8045,
        "meta_mean_anomaly": 109.7393,
        "meta_ephemeris_type": 0,
        "meta_classification_type": "U",
        "meta_norad_cat_id": 36106,
        "meta_element_set_no": 999,
        "meta_rev_at_epoch": 3931,
        "meta_bstar": 0,
        "meta_mean_motion_dot": -1.83e-06,
        "meta_mean_motion_ddot": 0,
        "tle_line1": "1 36106U 09067A   25342.58373742 -.00000183  00000+0  00000+0 0  9994",
        "tle_line2": "2 36106   0.0105  16.3415 0002469 246.8045 109.7393  1.00270213 39318"
      },
      "geometry": {
        "type": "Point",
        "coordinates": [
          156.61400636498334,
          0.012139641969287608
        ]
      }
    },
    {
      "type": "Feature",
      "properties": {
        "norad_id": 36131,
        "name": "DIRECTV 12",
        "group": "intelsat",
        "lat": -0.021179332010083058,
        "lon": -31.229643750948775,
        "alt_km": 35784.168084387595,
        "timestamp": "2025-12-08T23:34:03.637422+00:00",
        "meta_object_name": "DIRECTV 12",
        "meta_object_id": "2009-075A",
        "meta_epoch": "2025-12-08T12:36:25.479360",
        "meta_mean_motion": 1.00271962,
        "meta_eccentricity": 4.518e-05,
        "meta_inclination": 0.0407,
        "meta_ra_of_asc_node": 139.7381,
        "meta_arg_of_pericenter": 197.4259,
        "meta_mean_anomaly": 186.7516,
        "meta_ephemeris_type": 0,
        "meta_classification_type": "U",
        "meta_norad_cat_id": 36131,
        "meta_element_set_no": 999,
        "meta_rev_at_epoch": 4464,
        "meta_bstar": 0,
        "meta_mean_motion_dot": -1.01e-06,
        "meta_mean_motion_ddot": 0,
        "tle_line1": "1 36131U 09075A   25342.52529490 -.00000101  00000+0  00000+0 0  9998",
        "tle_line2": "2 36131   0.0407 139.7381 0000451 197.4259 186.7516  1.00271962 44646"
      },
      "geometry": {
        "type": "Point",
        "coordinates": [
          -31.229643750948775,
          -0.021179332010083058
        ]
      }
    },
    {
      "type": "Feature",
      "properties": {
        "norad_id": 36397,
        "name": "INTELSAT 16 (IS-16)",
        "group": "intelsat",
        "lat": 0.019885556326225184,
        "lon": -4.681768936794798,
        "alt_km": 35787.2554191729,
        "timestamp": "2025-12-08T23:34:03.637433+00:00",
        "meta_object_name": "INTELSAT 16 (IS-16)",
        "meta_object_id": "2010-006A",
        "meta_epoch": "2025-12-08T12:35:16.423296",
        "meta_mean_motion": 1.0027046,
        "meta_eccentricity": 0.00023199,
        "meta_inclination": 0.0174,
        "meta_ra_of_asc_node": 305.6141,
        "meta_arg_of_pericenter": 315.2486,
        "meta_mean_anomaly": 289.2876,
        "meta_ephemeris_type": 0,
        "meta_classification_type": "U",
        "meta_norad_cat_id": 36397,
        "meta_element_set_no": 999,
        "meta_rev_at_epoch": 5774,
        "meta_bstar": 0,
        "meta_mean_motion_dot": -2.42e-06,
        "meta_mean_motion_ddot": 0,
        "tle_line1": "1 36397U 10006A   25342.52449564 -.00000242  00000+0  00000+0 0  9997",
        "tle_line2": "2 36397   0.0174 305.6141 0002319 315.2486 289.2876  1.00270460 57741"
      },
      "geometry": {
        "type": "Point",
        "coordinates": [
          -4.681768936794798,
          0.019885556326225184
        ]
      }
    },
    {
      "type": "Feature",
      "properties": {
        "norad_id": 37185,
        "name": "XM-5",
        "group": "intelsat",
        "lat": 0.03500852404117407,
        "lon": -43.68850954972439,
        "alt_km": 35793.41061878987,
        "timestamp": "2025-12-08T23:34:03.637445+00:00",
        "meta_object_name": "XM-5",
        "meta_object_id": "2010-053A",
        "meta_epoch": "2025-12-08T12:13:02.204256",
        "meta_mean_motion": 1.00270207,
        "meta_eccentricity": 0.0001792,
        "meta_inclination": 0.0649,
        "meta_ra_of_asc_node": 272.5719,
        "meta_arg_of_pericenter": 247.2018,
        "meta_mean_anomaly": 345.8143,
        "meta_ephemeris_type": 0,
        "meta_classification_type": "U",
        "meta_norad_cat_id": 37185,
        "meta_element_set_no": 999,
        "meta_rev_at_epoch": 5557,
        "meta_bstar": 0,
        "meta_mean_motion_dot": -2.1e-07,
        "meta_mean_motion_ddot": 0,
        "tle_line1": "1 37185U 10053A   25342.50905329 -.00000021  00000+0  00000+0 0  9994",
        "tle_line2": "2 37185   0.0649 272.5719 0001792 247.2018 345.8143  1.00270207 55570"
      },
      "geometry": {
        "type": "Point",
        "coordinates": [
          -43.68850954972439,
          0.03500852404117407
        ]
      }
    }
  ]
}